CCSDS_OMM_VERS = 2.0
CREATION_DATE  = 
ORIGINATOR     = 

OBJECT_NAME    = UNKNOWN
OBJECT_ID      = 
CENTER_NAME    = EARTH
REF_FRAME      = TEME
TIME_SYSTEM    = UTC
MEAN_ELEMENT_THEORY = SGP/SGP4

EPOCH          = 2025-11-06T08:17:13.646112
MEAN_MOTION    = 14.46888646
ECCENTRICITY   = .00305689
INCLINATION    = 81.2123
RA_OF_ASC_NODE = 170.2399
ARG_OF_PERICENTER = 30.7871
MEAN_ANOMALY   = 329.5105

EPHEMERIS_TYPE = 0
CLASSIFICATION_TYPE = U
NORAD_CAT_ID   = 270220
ELEMENT_SET_NO = 999
REV_AT_EPOCH   = 30649
BSTAR          = .4062576E-2
MEAN_MOTION_DOT = .14859E-3
MEAN_MOTION_DDOT = 0

CCSDS_OMM_VERS = 2.0
CREATION_DATE  = 
ORIGINATOR     = 

OBJECT_NAME    = UNKNOWN
OBJECT_ID      = 
CENTER_NAME    = EARTH
REF_FRAME      = TEME
TIME_SYSTEM    = UTC
MEAN_ELEMENT_THEORY = SGP/SGP4

EPOCH          = 2025-10-19T20:02:04.054560
MEAN_MOTION    = 11.85610104
ECCENTRICITY   = .10413785
INCLINATION    = 83.1747
RA_OF_ASC_NODE = 143.0899
ARG_OF_PERICENTER = 18.6972
MEAN_ANOMALY   = 344.9518

EPHEMERIS_TYPE = 0
CLASSIFICATION_TYPE = U
NORAD_CAT_ID   = 270221
ELEMENT_SET_NO = 999
REV_AT_EPOCH   = 25342
BSTAR          = .44746257E-2
MEAN_MOTION_DOT = .1391E-4
MEAN_MOTION_DDOT = 0

CCSDS_OMM_VERS = 2.0
CREATION_DATE  = 
ORIGINATOR     = 

OBJECT_NAME    = UNKNOWN
OBJECT_ID      = 
CENTER_NAME    = EARTH
REF_FRAME      = TEME
TIME_SYSTEM    = UTC
MEAN_ELEMENT_THEORY = SGP/SGP4

EPOCH          = 2025-11-06T10:38:39.656256
MEAN_MOTION    = 12.95424192
ECCENTRICITY   = .00368769
INCLINATION    = 90.2458
RA_OF_ASC_NODE = 1.4129
ARG_OF_PERICENTER = 71.2186
MEAN_ANOMALY   = 289.2928

EPHEMERIS_TYPE = 0
CLASSIFICATION_TYPE = U
NORAD_CAT_ID   = 270222
ELEMENT_SET_NO = 999
REV_AT_EPOCH   = 27802
BSTAR          = .19393868E-2
MEAN_MOTION_DOT = .556E-5
MEAN_MOTION_DDOT = 0

CCSDS_OMM_VERS = 2.0
CREATION_DATE  = 
ORIGINATOR     = 

OBJECT_NAME    = UNKNOWN
OBJECT_ID      = 
CENTER_NAME    = EARTH
REF_FRAME      = TEME
TIME_SYSTEM    = UTC
MEAN_ELEMENT_THEORY = SGP/SGP4

EPOCH          = 2025-10-24T10:16:51.370176
MEAN_MOTION    = 13.00271624
ECCENTRICITY   = .0025731
INCLINATION    = 90.2542
RA_OF_ASC_NODE = 0.0895
ARG_OF_PERICENTER = 268.9558
MEAN_ANOMALY   = 90.8616

EPHEMERIS_TYPE = 0
CLASSIFICATION_TYPE = U
NORAD_CAT_ID   = 270223
ELEMENT_SET_NO = 999
REV_AT_EPOCH   = 27621
BSTAR          = .72873224E-3
MEAN_MOTION_DOT = .228E-5
MEAN_MOTION_DDOT = 0

CCSDS_OMM_VERS = 2.0
CREATION_DATE  = 
ORIGINATOR     = 

OBJECT_NAME    = UNKNOWN
OBJECT_ID      = 
CENTER_NAME    = EARTH
REF_FRAME      = TEME
TIME_SYSTEM    = UTC
MEAN_ELEMENT_THEORY = SGP/SGP4

EPOCH          = 2025-11-03T18:00:20.941632
MEAN_MOTION    = 13.38704742
ECCENTRICITY   = .05298289
INCLINATION    = 73.1487
RA_OF_ASC_NODE = 118.1641
ARG_OF_PERICENTER = 284.2815
MEAN_ANOMALY   = 70.0019

EPHEMERIS_TYPE = 0
CLASSIFICATION_TYPE = U
NORAD_CAT_ID   = 270224
ELEMENT_SET_NO = 999
REV_AT_EPOCH   = 28283
BSTAR          = .35353034E-2
MEAN_MOTION_DOT = .4255E-4
MEAN_MOTION_DDOT = 0

CCSDS_OMM_VERS = 2.0
CREATION_DATE  = 
ORIGINATOR     = 

OBJECT_NAME    = UNKNOWN
OBJECT_ID      = 
CENTER_NAME    = EARTH
REF_FRAME      = TEME
TIME_SYSTEM    = UTC
MEAN_ELEMENT_THEORY = SGP/SGP4

EPOCH          = 2025-11-01T00:23:54.218400
MEAN_MOTION    = 11.67005915
ECCENTRICITY   = .03986509
INCLINATION    = 101.2653
RA_OF_ASC_NODE = 56.6051
ARG_OF_PERICENTER = 261.9391
MEAN_ANOMALY   = 93.6233

EPHEMERIS_TYPE = 0
CLASSIFICATION_TYPE = U
NORAD_CAT_ID   = 270226
ELEMENT_SET_NO = 999
REV_AT_EPOCH   = 25020
BSTAR          = .21155403E-2
MEAN_MOTION_DOT = .106E-5
MEAN_MOTION_DDOT = 0

CCSDS_OMM_VERS = 2.0
CREATION_DATE  = 
ORIGINATOR     = 

OBJECT_NAME    = UNKNOWN
OBJECT_ID      = 
CENTER_NAME    = EARTH
REF_FRAME      = TEME
TIME_SYSTEM    = UTC
MEAN_ELEMENT_THEORY = SGP/SGP4

EPOCH          = 2025-11-03T11:51:33.795360
MEAN_MOTION    = 12.24552119
ECCENTRICITY   = .01386286
INCLINATION    = 74.0123
RA_OF_ASC_NODE = 29.0200
ARG_OF_PERICENTER = 50.4802
MEAN_ANOMALY   = 310.8393

EPHEMERIS_TYPE = 0
CLASSIFICATION_TYPE = U
NORAD_CAT_ID   = 270228
ELEMENT_SET_NO = 999
REV_AT_EPOCH   = 26098
BSTAR          = .12178629E-3
MEAN_MOTION_DOT = 0
MEAN_MOTION_DDOT = 0

CCSDS_OMM_VERS = 2.0
CREATION_DATE  = 
ORIGINATOR     = 

OBJECT_NAME    = UNKNOWN
OBJECT_ID      = 
CENTER_NAME    = EARTH
REF_FRAME      = TEME
TIME_SYSTEM    = UTC
MEAN_ELEMENT_THEORY = SGP/SGP4

EPOCH          = 2025-11-04T01:43:49.626624
MEAN_MOTION    = 13.90989098
ECCENTRICITY   = .01433906
INCLINATION    = 98.9314
RA_OF_ASC_NODE = 231.7463
ARG_OF_PERICENTER = 151.6748
MEAN_ANOMALY   = 209.2303

EPHEMERIS_TYPE = 0
CLASSIFICATION_TYPE = U
NORAD_CAT_ID   = 270229
ELEMENT_SET_NO = 999
REV_AT_EPOCH   = 29662
BSTAR          = .65370265E-3
MEAN_MOTION_DOT = .85E-5
MEAN_MOTION_DDOT = 0

CCSDS_OMM_VERS = 2.0
CREATION_DATE  = 
ORIGINATOR     = 

OBJECT_NAME    = UNKNOWN
OBJECT_ID      = 
CENTER_NAME    = EARTH
REF_FRAME      = TEME
TIME_SYSTEM    = UTC
MEAN_ELEMENT_THEORY = SGP/SGP4

EPOCH          = 2025-11-02T15:43:30.896544
MEAN_MOTION    = 12.20201222
ECCENTRICITY   = .02583437
INCLINATION    = 103.0183
RA_OF_ASC_NODE = 271.1494
ARG_OF_PERICENTER = 122.9466
MEAN_ANOMALY   = 239.6708

EPHEMERIS_TYPE = 0
CLASSIFICATION_TYPE = U
NORAD_CAT_ID   = 270230
ELEMENT_SET_NO = 999
REV_AT_EPOCH   = 25822
BSTAR          = .29215459E-1
MEAN_MOTION_DOT = .3325E-4
MEAN_MOTION_DDOT = 0

CCSDS_OMM_VERS = 2.0
CREATION_DATE  = 
ORIGINATOR     = 

OBJECT_NAME    = UNKNOWN
OBJECT_ID      = 
CENTER_NAME    = EARTH
REF_FRAME      = TEME
TIME_SYSTEM    = UTC
MEAN_ELEMENT_THEORY = SGP/SGP4

EPOCH          = 2025-11-02T18:37:21.393984
MEAN_MOTION    = 12.91478561
ECCENTRICITY   = .07050286
INCLINATION    = 72.9615
RA_OF_ASC_NODE = 134.7566
ARG_OF_PERICENTER = 79.1802
MEAN_ANOMALY   = 288.7757

EPHEMERIS_TYPE = 0
CLASSIFICATION_TYPE = U
NORAD_CAT_ID   = 270232
ELEMENT_SET_NO = 999
REV_AT_EPOCH   = 27283
BSTAR          = .32970639E-2
MEAN_MOTION_DOT = .2689E-4
MEAN_MOTION_DDOT = 0

CCSDS_OMM_VERS = 2.0
CREATION_DATE  = 
ORIGINATOR     = 

OBJECT_NAME    = UNKNOWN
OBJECT_ID      = 
CENTER_NAME    = EARTH
REF_FRAME      = TEME
TIME_SYSTEM    = UTC
MEAN_ELEMENT_THEORY = SGP/SGP4

EPOCH          = 2025-11-04T17:15:53.780544
MEAN_MOTION    = 14.38318810
ECCENTRICITY   = .00333097
INCLINATION    = 98.6236
RA_OF_ASC_NODE = 309.1004
ARG_OF_PERICENTER = 120.5624
MEAN_ANOMALY   = 239.8857

EPHEMERIS_TYPE = 0
CLASSIFICATION_TYPE = U
NORAD_CAT_ID   = 270233
ELEMENT_SET_NO = 999
REV_AT_EPOCH   = 30302
BSTAR          = .17637402E-3
MEAN_MOTION_DOT = .496E-5
MEAN_MOTION_DDOT = 0

CCSDS_OMM_VERS = 2.0
CREATION_DATE  = 
ORIGINATOR     = 

OBJECT_NAME    = UNKNOWN
OBJECT_ID      = 
CENTER_NAME    = EARTH
REF_FRAME      = TEME
TIME_SYSTEM    = UTC
MEAN_ELEMENT_THEORY = SGP/SGP4

EPOCH          = 2025-11-03T19:57:51.597216
MEAN_MOTION    = 13.58970888
ECCENTRICITY   = .01423018
INCLINATION    = 82.9333
RA_OF_ASC_NODE = 155.1496
ARG_OF_PERICENTER = 183.9117
MEAN_ANOMALY   = 176.0932

EPHEMERIS_TYPE = 0
CLASSIFICATION_TYPE = U
NORAD_CAT_ID   = 270235
ELEMENT_SET_NO = 999
REV_AT_EPOCH   = 29095
BSTAR          = .16180715E-2
MEAN_MOTION_DOT = .1283E-4
MEAN_MOTION_DDOT = 0

CCSDS_OMM_VERS = 2.0
CREATION_DATE  = 
ORIGINATOR     = 

OBJECT_NAME    = UNKNOWN
OBJECT_ID      = 
CENTER_NAME    = EARTH
REF_FRAME      = TEME
TIME_SYSTEM    = UTC
MEAN_ELEMENT_THEORY = SGP/SGP4

EPOCH          = 2025-11-05T10:22:53.895936
MEAN_MOTION    = 12.95473808
ECCENTRICITY   = .00299145
INCLINATION    = 90.2376
RA_OF_ASC_NODE = 358.6415
ARG_OF_PERICENTER = 39.2921
MEAN_ANOMALY   = 321.0362

EPHEMERIS_TYPE = 0
CLASSIFICATION_TYPE = U
NORAD_CAT_ID   = 270236
ELEMENT_SET_NO = 999
REV_AT_EPOCH   = 27339
BSTAR          = .21084347E-2
MEAN_MOTION_DOT = .603E-5
MEAN_MOTION_DDOT = 0

CCSDS_OMM_VERS = 2.0
CREATION_DATE  = 
ORIGINATOR     = 

OBJECT_NAME    = UNKNOWN
OBJECT_ID      = 
CENTER_NAME    = EARTH
REF_FRAME      = TEME
TIME_SYSTEM    = UTC
MEAN_ELEMENT_THEORY = SGP/SGP4

EPOCH          = 2025-11-06T09:49:41.181024
MEAN_MOTION    = 12.95975203
ECCENTRICITY   = .00269248
INCLINATION    = 90.2480
RA_OF_ASC_NODE = 2.2127
ARG_OF_PERICENTER = 130.2654
MEAN_ANOMALY   = 230.0826

EPHEMERIS_TYPE = 0
CLASSIFICATION_TYPE = U
NORAD_CAT_ID   = 270237
ELEMENT_SET_NO = 999
REV_AT_EPOCH   = 27241
BSTAR          = .2307493E-2
MEAN_MOTION_DOT = .664E-5
MEAN_MOTION_DDOT = 0

CCSDS_OMM_VERS = 2.0
CREATION_DATE  = 
ORIGINATOR     = 

OBJECT_NAME    = UNKNOWN
OBJECT_ID      = 
CENTER_NAME    = EARTH
REF_FRAME      = TEME
TIME_SYSTEM    = UTC
MEAN_ELEMENT_THEORY = SGP/SGP4

EPOCH          = 2025-11-05T13:10:43.739904
MEAN_MOTION    = 12.80737786
ECCENTRICITY   = .01118199
INCLINATION    = 63.5224
RA_OF_ASC_NODE = 246.1087
ARG_OF_PERICENTER = 74.4402
MEAN_ANOMALY   = 286.8903

EPHEMERIS_TYPE = 0
CLASSIFICATION_TYPE = U
NORAD_CAT_ID   = 270238
ELEMENT_SET_NO = 999
REV_AT_EPOCH   = 26971
BSTAR          = .19145022E-2
MEAN_MOTION_DOT = .377E-5
MEAN_MOTION_DDOT = 0

CCSDS_OMM_VERS = 2.0
CREATION_DATE  = 
ORIGINATOR     = 

OBJECT_NAME    = UNKNOWN
OBJECT_ID      = 
CENTER_NAME    = EARTH
REF_FRAME      = TEME
TIME_SYSTEM    = UTC
MEAN_ELEMENT_THEORY = SGP/SGP4

EPOCH          = 2025-11-06T08:39:10.619712
MEAN_MOTION    = 12.27123726
ECCENTRICITY   = .01537124
INCLINATION    = 82.4449
RA_OF_ASC_NODE = 351.5687
ARG_OF_PERICENTER = 80.1678
MEAN_ANOMALY   = 281.6709

EPHEMERIS_TYPE = 0
CLASSIFICATION_TYPE = U
NORAD_CAT_ID   = 270239
ELEMENT_SET_NO = 999
REV_AT_EPOCH   = 25758
BSTAR          = .41587396E-2
MEAN_MOTION_DOT = .499E-5
MEAN_MOTION_DDOT = 0

